[{"OBJECT_NAME":"STARLINK-35729","OBJECT_ID":"2025-280S","EPOCH":"2026-03-09T23:21:34.879968","MEAN_MOTION":14.98329385,"ECCENTRICITY":0.00029279,"INCLINATION":70.0029,"RA_OF_ASC_NODE":333.9285,"ARG_OF_PERICENTER":271.5719,"MEAN_ANOMALY":88.5104,"EPHEMERIS_TYPE":0,"CLASSIFICATION_TYPE":"U","NORAD_CAT_ID":66837,"ELEMENT_SET_NO":999,"REV_AT_EPOCH":1611,"BSTAR":0.0014761065,"MEAN_MOTION_DOT":0.00017564,"MEAN_MOTION_DDOT":0},{"OBJECT_NAME":"ION SCV-021","OBJECT_ID":"2025-276DT","EPOCH":"2026-03-09T17:54:19.585728","MEAN_MOTION":14.97286526,"ECCENTRICITY":0.00131375,"INCLINATION":97.5322,"RA_OF_ASC_NODE":142.8125,"ARG_OF_PERICENTER":96.8695,"MEAN_ANOMALY":263.4023,"EPHEMERIS_TYPE":0,"CLASSIFICATION_TYPE":"U","NORAD_CAT_ID":67483,"ELEMENT_SET_NO":999,"REV_AT_EPOCH":772,"BSTAR":0.00021144867,"MEAN_MOTION_DOT":2.399e-5,"MEAN_MOTION_DDOT":0}]
